OBJECT_NAME,OBJECT_ID,EPOCH,MEAN_MOTION,ECCENTRICITY,INCLINATION,RA_OF_ASC_NODE,ARG_OF_PERICENTER,MEAN_ANOMALY,EPHEMERIS_TYPE,CLASSIFICATION_TYPE,NORAD_CAT_ID,ELEMENT_SET_NO,REV_AT_EPOCH,BSTAR,MEAN_MOTION_DOT,MEAN_MOTION_DDOT
PERSEUS-M1,2014-033AF,2026-05-19T09:37:15.680352,14.95525884,.00126742,97.9635,83.0654,39.4863,320.7279,0,U,40039,999,64633,.11740598E-3,.1242E-4,0
POLYITAN-1,2014-033AJ,2026-05-19T18:48:38.622240,15.32178114,.00057706,98.0961,163.3809,235.7772,124.2921,0,U,40042,999,64924,.39799719E-3,.12288E-3,0
TIGRISAT,2014-033AK,2026-05-19T22:51:09.418176,14.85026822,.00498421,97.7800,290.6194,165.7339,194.5298,0,U,40043,999,64143,.1672451E-3,.1404E-4,0
AEROCUBE 6A,2014-033AM,2026-05-19T10:23:40.881120,14.97759247,.00401234,97.7224,306.6998,110.9849,249.5673,0,U,40045,999,64231,.25521931E-3,.2984E-4,0
AEROCUBE 6B,2014-033AN,2026-05-19T22:19:50.659680,14.99186981,.00386307,97.7180,306.9221,102.6886,257.8660,0,U,40046,999,64252,.36691842E-3,.4477E-4,0
CANX-4,2014-034C,2026-05-19T21:57:54.435168,14.81205818,.00141117,98.3157,14.1862,100.8302,259.4499,0,U,40055,999,64034,.79990823E-4,.566E-5,0
CANX-5,2014-034D,2026-05-19T04:06:05.340960,14.81221742,.00140939,98.3161,13.4562,103.1891,257.0894,0,U,40056,999,63104,.77793206E-4,.549E-5,0
UKUBE-1,2014-037F,2026-05-19T22:25:26.939712,15.13046315,.00004983,98.4244,140.2507,135.0570,225.0699,0,U,40074,999,64428,.33816127E-3,.5901E-4,0
BRITE-PL2 (HEWELIUSZ),2014-049B,2026-05-19T05:58:46.909056,14.94470930,.0013642,97.9066,251.0338,200.1054,159.9630,0,U,40119,999,63712,.13507E-3,.14E-4,0
AEROCUBE 5C,2015-058B,2026-05-19T22:33:37.673568,14.91278301,.01299477,64.7681,350.4553,74.3805,287.1604,0,U,40965,999,36144,.18867719E-3,.2034E-4,0
AEROCUBE 7,2015-058C,2026-05-19T22:47:27.525696,14.95488065,.01197245,64.7629,333.2469,73.0363,288.3832,0,U,40966,999,36173,.24887038E-3,.3008E-4,0
FOX-1A (AO-85),2015-058D,2026-05-19T21:52:16.435776,14.90787273,.01292495,64.7763,6.8455,67.6906,293.7849,0,U,40967,999,10935,.1989722E-3,.2122E-4,0
SINOD-D 1,2015-058E,2026-05-19T22:20:33.638496,14.95666306,.01177624,64.7759,347.3851,64.4287,296.8944,0,U,40968,999,11243,.2448341E-3,.2957E-4,0
SNAP-3 ALICE,2015-058G,2026-05-19T14:07:31.332576,15.54118134,.00333678,64.7514,202.3040,26.7044,333.5807,0,U,40970,999,11243,.9018807E-3,.60588E-3,0
LMRST-SAT,2015-058H,2026-05-19T22:14:15.056160,14.90412950,.01310047,64.7769,3.0828,69.7034,291.8102,0,U,40971,999,10934,.19617547E-3,.2077E-4,0
SNAP-3 EDDIE,2015-058J,2026-05-19T20:35:03.888960,15.55313193,.00337062,64.7431,192.3103,30.1939,330.1138,0,U,40972,999,11461,.97429449E-3,.68542E-3,0
PROPCUBE 3,2015-058K,2026-05-19T23:08:34.389024,14.94048413,.01231171,64.7689,340.7017,71.1727,290.2693,0,U,40973,999,11058,.21946011E-3,.2546E-4,0
BISONSAT,2015-058L,2026-05-19T17:32:34.600992,15.15567997,.00785744,64.7603,265.5963,59.3035,301.5801,0,U,40974,999,11130,.3871829E-3,.7776E-4,0
SNAP-3 JIMI,2015-058M,2026-05-19T21:28:20.059104,15.01986603,.01051211,64.7653,309.2669,67.1249,294.0925,0,U,40975,999,10997,.28983313E-3,.4103E-4,0
PROPCUBE 1 (FLORA),2015-058N,2026-05-19T22:08:37.608000,14.89044244,.01297941,64.7759,22.8245,71.9893,289.5313,0,U,40976,999,11205,.195206E-3,.1982E-4,0
SINOD-D 3,2015-058P,2026-05-19T22:10:52.045536,14.93779428,.01182716,64.7733,4.0612,69.4367,291.9389,0,U,40977,999,11053,.24414636E-3,.2799E-4,0
HORYU-4,2016-012D,2026-05-19T18:10:27.770304,15.79898686,.00043884,30.9888,285.0471,82.5122,277.6034,0,U,41340,999,56629,.85393791E-3,.168359E-2,0
RAVAN,2016-067B,2026-05-19T05:53:57.267744,15.51802776,.0007194,97.9929,25.5391,103.2439,256.9614,0,U,41849,999,52320,.47667E-3,.28457E-3,0
CELTEE 1,2016-067C,2026-05-19T21:23:08.697696,15.19372030,.00014499,98.0704,4.5298,56.1823,303.9547,0,U,41850,999,52158,.17311864E-3,.3583E-4,0
OPTICUBE 04,2016-067D,2026-05-19T20:12:31.228704,15.09525405,.00149111,98.0726,350.6454,209.1628,150.8768,0,U,41851,999,52089,.85626574E-4,.1304E-4,0
AEROCUBE 8D,2016-067E,2026-05-19T20:38:42.468864,15.23957700,.00023819,98.0714,7.8810,209.3884,150.7218,0,U,41852,999,52175,.21215774E-3,.5051E-4,0
AEROCUBE 8C,2016-067F,2026-05-19T13:28:32.222784,15.24193406,.00060779,98.0584,4.8247,146.5508,213.6113,0,U,41853,999,52170,.20724131E-3,.4969E-4,0
CORVUS BC2,2017-042X,2026-05-19T21:27:00.965952,15.06091768,.00124965,97.4041,302.3528,201.9698,158.0996,0,U,42846,999,48280,.11024573E-3,.1554E-4,0
CORVUS BC1,2017-042Y,2026-05-19T22:59:32.813088,15.06262439,.00120032,97.4071,303.2099,177.6328,182.4959,0,U,42847,999,48284,.11137678E-3,.1577E-4,0
MAKERSAT 0,2017-073D,2026-05-19T04:04:45.485760,15.30786593,.01105371,97.4662,21.4848,17.3797,343.1179,0,U,43016,999,46202,.44460631E-3,.15924E-3,0
