PERSEUS-M1              
1 40039U 14033AF  26139.40087593  .00001242  00000+0  11741-3 0  9999
2 40039  97.9635  83.0654 0012674  39.4863 320.7279 14.95525884646339
POLYITAN-1              
1 40042U 14033AJ  26139.78378035  .00012288  00000+0  39800-3 0  9996
2 40042  98.0961 163.3809 0005770 235.7772 124.2921 15.32178114649246
TIGRISAT                
1 40043U 14033AK  26139.95219234  .00001404  00000+0  16725-3 0  9990
2 40043  97.7800 290.6194 0049842 165.7339 194.5298 14.85026822641430
AEROCUBE 6A             
1 40045U 14033AM  26139.43311205  .00002984  00000+0  25522-3 0  9995
2 40045  97.7224 306.6998 0040123 110.9849 249.5673 14.97759247642316
AEROCUBE 6B             
1 40046U 14033AN  26139.93044745  .00004477  00000+0  36692-3 0  9992
2 40046  97.7180 306.9221 0038630 102.6886 257.8660 14.99186981642521
CANX-4                  
1 40055U 14034C   26139.91521337  .00000566  00000+0  79991-4 0  9993
2 40055  98.3157  14.1862 0014111 100.8302 259.4499 14.81205818640340
CANX-5                  
1 40056U 14034D   26139.17089515  .00000549  00000+0  77793-4 0  9998
2 40056  98.3161  13.4562 0014093 103.1891 257.0894 14.81221742631047
UKUBE-1                 
1 40074U 14037F   26139.93433958  .00005901  00000+0  33816-3 0  9993
2 40074  98.4244 140.2507 0000498 135.0570 225.0699 15.13046315644285
BRITE-PL2 (HEWELIUSZ)   
1 40119U 14049B   26139.24915404  .00001400  00000+0  13507-3 0  9996
2 40119  97.9066 251.0338 0013642 200.1054 159.9630 14.94470930637127
AEROCUBE 5C             
1 40965U 15058B   26139.94001937  .00002034  00000+0  18868-3 0  9999
2 40965  64.7681 350.4553 0129947  74.3805 287.1604 14.91278301361444
AEROCUBE 7              
1 40966U 15058C   26139.94962414  .00003008  00000+0  24887-3 0  9996
2 40966  64.7629 333.2469 0119724  73.0363 288.3832 14.95488065361731
FOX-1A (AO-85)          
1 40967U 15058D   26139.91130134  .00002122  00000+0  19897-3 0  9991
2 40967  64.7763   6.8455 0129249  67.6906 293.7849 14.90787273109358
SINOD-D 1               
1 40968U 15058E   26139.93094489  .00002957  00000+0  24483-3 0  9999
2 40968  64.7759 347.3851 0117762  64.4287 296.8944 14.95666306112432
SNAP-3 ALICE            
1 40970U 15058G   26139.58855709  .00060588  00000+0  90188-3 0  9992
2 40970  64.7514 202.3040 0033367  26.7044 333.5807 15.54118134112438
LMRST-SAT               
1 40971U 15058H   26139.92656315  .00002077  00000+0  19618-3 0  9991
2 40971  64.7769   3.0828 0131004  69.7034 291.8102 14.90412950109346
SNAP-3 EDDIE            
1 40972U 15058J   26139.85768390  .00068542  00000+0  97429-3 0  9996
2 40972  64.7431 192.3103 0033706  30.1939 330.1138 15.55313193114610
PROPCUBE 3              
1 40973U 15058K   26139.96428691  .00002546  00000+0  21946-3 0  9999
2 40973  64.7689 340.7017 0123117  71.1727 290.2693 14.94048413110581
BISONSAT                
1 40974U 15058L   26139.73095603  .00007776  00000+0  38718-3 0  9993
2 40974  64.7603 265.5963 0078574  59.3035 301.5801 15.15567997111303
SNAP-3 JIMI             
1 40975U 15058M   26139.89467661  .00004103  00000+0  28983-3 0  9992
2 40975  64.7653 309.2669 0105121  67.1249 294.0925 15.01986603109978
PROPCUBE 1 (FLORA)      
1 40976U 15058N   26139.92265750  .00001982  00000+0  19521-3 0  9992
2 40976  64.7759  22.8245 0129794  71.9893 289.5313 14.89044244112058
SINOD-D 3               
1 40977U 15058P   26139.92421349  .00002799  00000+0  24415-3 0  9996
2 40977  64.7733   4.0612 0118271  69.4367 291.9389 14.93779428110532
HORYU-4                 
1 41340U 16012D   26139.75726586  .00168359  00000+0  85394-3 0  9992
2 41340  30.9888 285.0471 0004388  82.5122 277.6034 15.79898686566294
RAVAN                   
1 41849U 16067B   26139.24580171  .00028457  00000+0  47667-3 0  9993
2 41849  97.9929  25.5391 0007194 103.2439 256.9614 15.51802776523208
CELTEE 1                
1 41850U 16067C   26139.89107289  .00003583  00000+0  17312-3 0  9998
2 41850  98.0704   4.5298 0001449  56.1823 303.9547 15.19372030521582
OPTICUBE 04             
1 41851U 16067D   26139.84202811  .00001304  00000+0  85627-4 0  9995
2 41851  98.0726 350.6454 0014911 209.1628 150.8768 15.09525405520899
AEROCUBE 8D             
1 41852U 16067E   26139.86021376  .00005051  00000+0  21216-3 0  9999
2 41852  98.0714   7.8810 0002381 209.3884 150.7218 15.23957700521756
AEROCUBE 8C             
1 41853U 16067F   26139.56148406  .00004969  00000+0  20724-3 0  9991
2 41853  98.0584   4.8247 0006077 146.5508 213.6113 15.24193406521708
CORVUS BC2              
1 42846U 17042X   26139.89376118  .00001554  00000+0  11025-3 0  9998
2 42846  97.4041 302.3528 0012496 201.9698 158.0996 15.06091768482804
CORVUS BC1              
1 42847U 17042Y   26139.95801867  .00001577  00000+0  11138-3 0  9990
2 42847  97.4071 303.2099 0012003 177.6328 182.4959 15.06262439482843
MAKERSAT 0              
1 43016U 17073D   26139.16997090  .00015924  00000+0  44461-3 0  9996
2 43016  97.4662  21.4848 0110537  17.3797 343.1179 15.30786593462027
